42959,IRIDIUM 119,2017,100.4,860.0,+,86.4,Active,1,LEO,USA,USA,Commercial/Government,Communications,Falcon,1 42959U 17061E   24062.95100351  .00000114  00000+0  33553-4 0  9990,2 42959  86.4011  14.6978 0001976  89.6375 270.5047 14.34217813334950,14.34217813,0.0001976,LEO
42960,IRIDIUM 107,2017,100.4,860.0,+,86.4,Active,1,LEO,USA,USA,Commercial/Government,Communications,Falcon,1 42960U 17061F   24063.10956832 -.00000016  00000+0 -12765-4 0  9998,2 42960  86.4011  14.6479 0002151  94.5943 265.5498 14.34217268334992,14.34217268,0.0002151,LEO
42961,IRIDIUM 132,2017,100.4,860.0,+,86.4,Active,1,LEO,USA,USA,Commercial/Government,Communications,Falcon,1 42961U 17061G   24062.90660578  .00000048  00000+0  99935-5 0  9993,2 42961  86.4012  14.7178 0002177  92.7127 267.4318 14.34217812334956,14.34217812,0.0002177,LEO
42962,IRIDIUM 136,2017,100.4,860.0,+,86.4,Active,1,LEO,USA,USA,Commercial/Government,Communications,Falcon,1 42962U 17061H   24063.14762386  .00000049  00000+0  10558-4 0  9995,2 42962  86.4013  14.6199 0001931  83.5783 276.5632 14.34217586335008,14.34217586,0.0001931,LEO
42963,IRIDIUM 139,2017,100.4,860.0,+,86.41,Active,1,LEO,USA,USA,Commercial/Government,Communications,Falcon,1 42963U 17061J   24062.94466176  .00000250  00000+0  82353-4 0  9997,2 42963  86.4013  14.7532 0002267  91.1060 269.0395 14.34218206334986,14.34218206,0.0002267,LEO
42964,IRIDIUM 125,2017,100.4,860.0,+,86.4,Active,1,LEO,USA,USA,Commercial/Government,Communications,Falcon,1 42964U 17061K   24062.93197674  .00000050  00000+0  10757-4 0  9998,2 42964  86.4015  14.8040 0001923  95.5854 264.5561 14.34216535334990,14.34216535,0.0001923,LEO
43070,IRIDIUM 135,2017,100.4,860.0,+,86.4,Active,1,LEO,USA,USA,Commercial/Government,Communications,Falcon,1 43070U 17083A   24062.76656167  .00000380  00000+0  12865-3 0  9996,2 43070  86.3974 311.5930 0002472  85.4139 274.7339 14.34216190324263,14.3421619,0.0002472,LEO
43071,IRIDIUM 138,2017,100.4,860.0,+,86.4,Active,1,LEO,USA,USA,Commercial/Government,Communications,Falcon,1 43071U 17083B   24062.72216101  .00000166  00000+0  52363-4 0  9993,2 43071  86.3962 311.3424 0001794  88.1756 271.9645 14.34219685324247,14.34219685,0.0001794,LEO
